ZORKIY-2M-VPE           
1 67252U 25313E   26018.91925462  .00008129  00000+0  36147-3 0  9994
2 67252  97.4109  96.0590 0011411 144.1137 216.0867 15.21703838  3250
AIST-2T 1               
1 67253U 25313F   26018.91218999  .00053690  00000+0  53424-3 0  9995
2 67253  97.1025  96.2740 0010611 161.2881 198.8772 15.65488383  3324
AIST-2T 2               
1 67254U 25313G   26018.91397194  .00046644  00000+0  47244-3 0  9995
2 67254  97.1025  96.2716 0010199 163.4948 196.6647 15.65074749  3310
2025-313H               
1 67255U 25313H   26018.92635258  .00002483  00000+0  17648-3 0  9991
2 67255  97.3088  95.1860 0091518 122.8537 238.1540 15.02185597  3215
SITRO-AIS-57            
1 67256U 25313J   26018.94415337  .00010293  00000+0  47964-3 0  9990
2 67256  97.4103  96.0209 0017235 161.9255 198.2597 15.19946879  3255
SITRO-AIS-59            
1 67257U 25313K   26018.94367614  .00010323  00000+0  48074-3 0  9992
2 67257  97.4108  96.0232 0016976 163.9521 196.2256 15.19971533  3251
SITRO-AIS-58            
1 67258U 25313L   26018.94321680  .00010107  00000+0  47019-3 0  9994
2 67258  97.4103  96.0220 0016920 163.2275 196.9523 15.20013307  3254
2025-313M               
1 67259U 25313M   26018.93977521  .00012775  00000+0  58820-3 0  9990
2 67259  97.4147  96.0500 0016119 161.7893 198.3923 15.20322672  3251
SITRO-AIS-60            
1 67260U 25313N   26018.94154738  .00007637  00000+0  35553-3 0  9999
2 67260  97.4112  96.0269 0016337 163.4165 196.7608 15.20086533  3255
2025-313P               
1 67261U 25313P   26018.93796037  .00016984  00000+0  77559-3 0  9990
2 67261  97.4148  96.0529 0015873 162.1233 198.0564 15.20544396  3252
2025-313Q               
1 67262U 25313Q   26018.93971716  .00011596  00000+0  53476-3 0  9996
2 67262  97.4115  96.0297 0015971 163.9533 196.2211 15.20294904  3256
DCS-1                   
1 67263U 25313R   26018.94012508  .00010142  00000+0  46900-3 0  9993
2 67263  97.4126  96.0444 0015956 162.9730 197.2044 15.20233763  3255
