CCSDS_OMM_VERS = 2.0
CREATION_DATE  = 
ORIGINATOR     = 

OBJECT_NAME    = ZORKIY-2M-VPE
OBJECT_ID      = 2025-313E
CENTER_NAME    = EARTH
REF_FRAME      = TEME
TIME_SYSTEM    = UTC
MEAN_ELEMENT_THEORY = SGP/SGP4

EPOCH          = 2026-01-18T22:03:43.599168
MEAN_MOTION    = 15.21703838
ECCENTRICITY   = .00114116
INCLINATION    = 97.4109
RA_OF_ASC_NODE = 96.0590
ARG_OF_PERICENTER = 144.1137
MEAN_ANOMALY   = 216.0867

EPHEMERIS_TYPE = 0
CLASSIFICATION_TYPE = U
NORAD_CAT_ID   = 67252
ELEMENT_SET_NO = 999
REV_AT_EPOCH   = 325
BSTAR          = .36147108E-3
MEAN_MOTION_DOT = .8129E-4
MEAN_MOTION_DDOT = 0

CCSDS_OMM_VERS = 2.0
CREATION_DATE  = 
ORIGINATOR     = 

OBJECT_NAME    = AIST-2T 1
OBJECT_ID      = 2025-313F
CENTER_NAME    = EARTH
REF_FRAME      = TEME
TIME_SYSTEM    = UTC
MEAN_ELEMENT_THEORY = SGP/SGP4

EPOCH          = 2026-01-18T21:53:33.215136
MEAN_MOTION    = 15.65488383
ECCENTRICITY   = .00106116
INCLINATION    = 97.1025
RA_OF_ASC_NODE = 96.2740
ARG_OF_PERICENTER = 161.2881
MEAN_ANOMALY   = 198.8772

EPHEMERIS_TYPE = 0
CLASSIFICATION_TYPE = U
NORAD_CAT_ID   = 67253
ELEMENT_SET_NO = 999
REV_AT_EPOCH   = 332
BSTAR          = .53423528E-3
MEAN_MOTION_DOT = .5369E-3
MEAN_MOTION_DDOT = 0

CCSDS_OMM_VERS = 2.0
CREATION_DATE  = 
ORIGINATOR     = 

OBJECT_NAME    = AIST-2T 2
OBJECT_ID      = 2025-313G
CENTER_NAME    = EARTH
REF_FRAME      = TEME
TIME_SYSTEM    = UTC
MEAN_ELEMENT_THEORY = SGP/SGP4

EPOCH          = 2026-01-18T21:56:07.175616
MEAN_MOTION    = 15.65074749
ECCENTRICITY   = .00101993
INCLINATION    = 97.1025
RA_OF_ASC_NODE = 96.2716
ARG_OF_PERICENTER = 163.4948
MEAN_ANOMALY   = 196.6647

EPHEMERIS_TYPE = 0
CLASSIFICATION_TYPE = U
NORAD_CAT_ID   = 67254
ELEMENT_SET_NO = 999
REV_AT_EPOCH   = 331
BSTAR          = .47244045E-3
MEAN_MOTION_DOT = .46644E-3
MEAN_MOTION_DDOT = 0

CCSDS_OMM_VERS = 2.0
CREATION_DATE  = 
ORIGINATOR     = 

OBJECT_NAME    = 2025-313H
OBJECT_ID      = 2025-313H
CENTER_NAME    = EARTH
REF_FRAME      = TEME
TIME_SYSTEM    = UTC
MEAN_ELEMENT_THEORY = SGP/SGP4

EPOCH          = 2026-01-18T22:13:56.862912
MEAN_MOTION    = 15.02185597
ECCENTRICITY   = .00915186
INCLINATION    = 97.3088
RA_OF_ASC_NODE = 95.1860
ARG_OF_PERICENTER = 122.8537
MEAN_ANOMALY   = 238.1540

EPHEMERIS_TYPE = 0
CLASSIFICATION_TYPE = U
NORAD_CAT_ID   = 67255
ELEMENT_SET_NO = 999
REV_AT_EPOCH   = 321
BSTAR          = .17647971E-3
MEAN_MOTION_DOT = .2483E-4
MEAN_MOTION_DDOT = 0

CCSDS_OMM_VERS = 2.0
CREATION_DATE  = 
ORIGINATOR     = 

OBJECT_NAME    = SITRO-AIS-57
OBJECT_ID      = 2025-313J
CENTER_NAME    = EARTH
REF_FRAME      = TEME
TIME_SYSTEM    = UTC
MEAN_ELEMENT_THEORY = SGP/SGP4

EPOCH          = 2026-01-18T22:39:34.851168
MEAN_MOTION    = 15.19946879
ECCENTRICITY   = .00172354
INCLINATION    = 97.4103
RA_OF_ASC_NODE = 96.0209
ARG_OF_PERICENTER = 161.9255
MEAN_ANOMALY   = 198.2597

EPHEMERIS_TYPE = 0
CLASSIFICATION_TYPE = U
NORAD_CAT_ID   = 67256
ELEMENT_SET_NO = 999
REV_AT_EPOCH   = 325
BSTAR          = .47963882E-3
MEAN_MOTION_DOT = .10293E-3
MEAN_MOTION_DDOT = 0

CCSDS_OMM_VERS = 2.0
CREATION_DATE  = 
ORIGINATOR     = 

OBJECT_NAME    = SITRO-AIS-59
OBJECT_ID      = 2025-313K
CENTER_NAME    = EARTH
REF_FRAME      = TEME
TIME_SYSTEM    = UTC
MEAN_ELEMENT_THEORY = SGP/SGP4

EPOCH          = 2026-01-18T22:38:53.618496
MEAN_MOTION    = 15.19971533
ECCENTRICITY   = .00169761
INCLINATION    = 97.4108
RA_OF_ASC_NODE = 96.0232
ARG_OF_PERICENTER = 163.9521
MEAN_ANOMALY   = 196.2256

EPHEMERIS_TYPE = 0
CLASSIFICATION_TYPE = U
NORAD_CAT_ID   = 67257
ELEMENT_SET_NO = 999
REV_AT_EPOCH   = 325
BSTAR          = .48074448E-3
MEAN_MOTION_DOT = .10323E-3
MEAN_MOTION_DDOT = 0

CCSDS_OMM_VERS = 2.0
CREATION_DATE  = 
ORIGINATOR     = 

OBJECT_NAME    = SITRO-AIS-58
OBJECT_ID      = 2025-313L
CENTER_NAME    = EARTH
REF_FRAME      = TEME
TIME_SYSTEM    = UTC
MEAN_ELEMENT_THEORY = SGP/SGP4

EPOCH          = 2026-01-18T22:38:13.931520
MEAN_MOTION    = 15.20013307
ECCENTRICITY   = .00169202
INCLINATION    = 97.4103
RA_OF_ASC_NODE = 96.0220
ARG_OF_PERICENTER = 163.2275
MEAN_ANOMALY   = 196.9523

EPHEMERIS_TYPE = 0
CLASSIFICATION_TYPE = U
NORAD_CAT_ID   = 67258
ELEMENT_SET_NO = 999
REV_AT_EPOCH   = 325
BSTAR          = .47019477E-3
MEAN_MOTION_DOT = .10107E-3
MEAN_MOTION_DDOT = 0

CCSDS_OMM_VERS = 2.0
CREATION_DATE  = 
ORIGINATOR     = 

OBJECT_NAME    = 2025-313M
OBJECT_ID      = 2025-313M
CENTER_NAME    = EARTH
REF_FRAME      = TEME
TIME_SYSTEM    = UTC
MEAN_ELEMENT_THEORY = SGP/SGP4

EPOCH          = 2026-01-18T22:33:16.578144
MEAN_MOTION    = 15.20322672
ECCENTRICITY   = .00161194
INCLINATION    = 97.4147
RA_OF_ASC_NODE = 96.0500
ARG_OF_PERICENTER = 161.7893
MEAN_ANOMALY   = 198.3923

EPHEMERIS_TYPE = 0
CLASSIFICATION_TYPE = U
NORAD_CAT_ID   = 67259
ELEMENT_SET_NO = 999
REV_AT_EPOCH   = 325
BSTAR          = .58820055E-3
MEAN_MOTION_DOT = .12775E-3
MEAN_MOTION_DDOT = 0

CCSDS_OMM_VERS = 2.0
CREATION_DATE  = 
ORIGINATOR     = 

OBJECT_NAME    = SITRO-AIS-60
OBJECT_ID      = 2025-313N
CENTER_NAME    = EARTH
REF_FRAME      = TEME
TIME_SYSTEM    = UTC
MEAN_ELEMENT_THEORY = SGP/SGP4

EPOCH          = 2026-01-18T22:35:49.693632
MEAN_MOTION    = 15.20086533
ECCENTRICITY   = .00163377
INCLINATION    = 97.4112
RA_OF_ASC_NODE = 96.0269
ARG_OF_PERICENTER = 163.4165
MEAN_ANOMALY   = 196.7608

EPHEMERIS_TYPE = 0
CLASSIFICATION_TYPE = U
NORAD_CAT_ID   = 67260
ELEMENT_SET_NO = 999
REV_AT_EPOCH   = 325
BSTAR          = .35552627E-3
MEAN_MOTION_DOT = .7637E-4
MEAN_MOTION_DDOT = 0

CCSDS_OMM_VERS = 2.0
CREATION_DATE  = 
ORIGINATOR     = 

OBJECT_NAME    = 2025-313P
OBJECT_ID      = 2025-313P
CENTER_NAME    = EARTH
REF_FRAME      = TEME
TIME_SYSTEM    = UTC
MEAN_ELEMENT_THEORY = SGP/SGP4

EPOCH          = 2026-01-18T22:30:39.775968
MEAN_MOTION    = 15.20544396
ECCENTRICITY   = .00158734
INCLINATION    = 97.4148
RA_OF_ASC_NODE = 96.0529
ARG_OF_PERICENTER = 162.1233
MEAN_ANOMALY   = 198.0564

EPHEMERIS_TYPE = 0
CLASSIFICATION_TYPE = U
NORAD_CAT_ID   = 67261
ELEMENT_SET_NO = 999
REV_AT_EPOCH   = 325
BSTAR          = .77559335E-3
MEAN_MOTION_DOT = .16984E-3
MEAN_MOTION_DDOT = 0

CCSDS_OMM_VERS = 2.0
CREATION_DATE  = 
ORIGINATOR     = 

OBJECT_NAME    = 2025-313Q
OBJECT_ID      = 2025-313Q
CENTER_NAME    = EARTH
REF_FRAME      = TEME
TIME_SYSTEM    = UTC
MEAN_ELEMENT_THEORY = SGP/SGP4

EPOCH          = 2026-01-18T22:33:11.562624
MEAN_MOTION    = 15.20294904
ECCENTRICITY   = .00159718
INCLINATION    = 97.4115
RA_OF_ASC_NODE = 96.0297
ARG_OF_PERICENTER = 163.9533
MEAN_ANOMALY   = 196.2211

EPHEMERIS_TYPE = 0
CLASSIFICATION_TYPE = U
NORAD_CAT_ID   = 67262
ELEMENT_SET_NO = 999
REV_AT_EPOCH   = 325
BSTAR          = .5347629E-3
MEAN_MOTION_DOT = .11596E-3
MEAN_MOTION_DDOT = 0

CCSDS_OMM_VERS = 2.0
CREATION_DATE  = 
ORIGINATOR     = 

OBJECT_NAME    = DCS-1
OBJECT_ID      = 2025-313R
CENTER_NAME    = EARTH
REF_FRAME      = TEME
TIME_SYSTEM    = UTC
MEAN_ELEMENT_THEORY = SGP/SGP4

EPOCH          = 2026-01-18T22:33:46.806912
MEAN_MOTION    = 15.20233763
ECCENTRICITY   = .00159564
INCLINATION    = 97.4126
RA_OF_ASC_NODE = 96.0444
ARG_OF_PERICENTER = 162.9730
MEAN_ANOMALY   = 197.2044

EPHEMERIS_TYPE = 0
CLASSIFICATION_TYPE = U
NORAD_CAT_ID   = 67263
ELEMENT_SET_NO = 999
REV_AT_EPOCH   = 325
BSTAR          = .46900233E-3
MEAN_MOTION_DOT = .10142E-3
MEAN_MOTION_DDOT = 0

